[{"OBJECT_NAME":"STARLINK-34031","OBJECT_ID":"2025-095Y","EPOCH":"2025-09-23T09:50:15.164736","MEAN_MOTION":15.27609818,"ECCENTRICITY":0.0001203,"INCLINATION":43.0022,"RA_OF_ASC_NODE":40.9995,"ARG_OF_PERICENTER":274.8245,"MEAN_ANOMALY":85.2469,"EPHEMERIS_TYPE":0,"CLASSIFICATION_TYPE":"U","NORAD_CAT_ID":63912,"ELEMENT_SET_NO":999,"REV_AT_EPOCH":2219,"BSTAR":0.0012372243,"MEAN_MOTION_DOT":0.00033971,"MEAN_MOTION_DDOT":0},{"OBJECT_NAME":"STARLINK-34070","OBJECT_ID":"2025-095Z","EPOCH":"2025-09-24T01:20:43.254816","MEAN_MOTION":15.27596457,"ECCENTRICITY":5.739e-5,"INCLINATION":43.0034,"RA_OF_ASC_NODE":37.248,"ARG_OF_PERICENTER":303.7006,"MEAN_ANOMALY":56.3791,"EPHEMERIS_TYPE":0,"CLASSIFICATION_TYPE":"U","NORAD_CAT_ID":63913,"ELEMENT_SET_NO":999,"REV_AT_EPOCH":2229,"BSTAR":0.001230495,"MEAN_MOTION_DOT":0.0003377,"MEAN_MOTION_DDOT":0},{"OBJECT_NAME":"STARLINK-34068","OBJECT_ID":"2025-095AA","EPOCH":"2025-09-23T15:40:58.386720","MEAN_MOTION":15.27616045,"ECCENTRICITY":0.00012332,"INCLINATION":43.0038,"RA_OF_ASC_NODE":39.3841,"ARG_OF_PERICENTER":275.7867,"MEAN_ANOMALY":84.2844,"EPHEMERIS_TYPE":0,"CLASSIFICATION_TYPE":"U","NORAD_CAT_ID":63914,"ELEMENT_SET_NO":999,"REV_AT_EPOCH":2223,"BSTAR":0.002056526,"MEAN_MOTION_DOT":0.00056828,"MEAN_MOTION_DDOT":0},{"OBJECT_NAME":"STARLINK-34076","OBJECT_ID":"2025-095AB","EPOCH":"2025-09-24T01:15:10.087776","MEAN_MOTION":15.27575472,"ECCENTRICITY":6.036e-5,"INCLINATION":43.0024,"RA_OF_ASC_NODE":37.2133,"ARG_OF_PERICENTER":288.1137,"MEAN_ANOMALY":71.9649,"EPHEMERIS_TYPE":0,"CLASSIFICATION_TYPE":"U","NORAD_CAT_ID":63915,"ELEMENT_SET_NO":999,"REV_AT_EPOCH":2229,"BSTAR":0.0015272082,"MEAN_MOTION_DOT":0.00041997,"MEAN_MOTION_DDOT":0},{"OBJECT_NAME":"STARLINK-33910","OBJECT_ID":"2025-095AC","EPOCH":"2025-09-23T10:36:16.552800","MEAN_MOTION":15.27664748,"ECCENTRICITY":0.00024257,"INCLINATION":43.0046,"RA_OF_ASC_NODE":40.3721,"ARG_OF_PERICENTER":280.0704,"MEAN_ANOMALY":79.9874,"EPHEMERIS_TYPE":0,"CLASSIFICATION_TYPE":"U","NORAD_CAT_ID":63916,"ELEMENT_SET_NO":999,"REV_AT_EPOCH":2220,"BSTAR":0.0025296754,"MEAN_MOTION_DOT":0.00070198,"MEAN_MOTION_DDOT":0},{"OBJECT_NAME":"STARLINK-34075","OBJECT_ID":"2025-095AD","EPOCH":"2025-09-23T20:17:52.821600","MEAN_MOTION":15.2764335,"ECCENTRICITY":0.00016425,"INCLINATION":43.003,"RA_OF_ASC_NODE":38.2453,"ARG_OF_PERICENTER":278.7408,"MEAN_ANOMALY":81.3258,"EPHEMERIS_TYPE":0,"CLASSIFICATION_TYPE":"U","NORAD_CAT_ID":63917,"ELEMENT_SET_NO":999,"REV_AT_EPOCH":2226,"BSTAR":0.0020436728,"MEAN_MOTION_DOT":0.00056517,"MEAN_MOTION_DDOT":0},{"OBJECT_NAME":"STARLINK-34012","OBJECT_ID":"2025-098A","EPOCH":"2025-09-23T14:49:28.795296","MEAN_MOTION":14.98343962,"ECCENTRICITY":0.00035722,"INCLINATION":70.0031,"RA_OF_ASC_NODE":335.8275,"ARG_OF_PERICENTER":270.9074,"MEAN_ANOMALY":89.1676,"EPHEMERIS_TYPE":0,"CLASSIFICATION_TYPE":"U","NORAD_CAT_ID":63926,"ELEMENT_SET_NO":999,"REV_AT_EPOCH":2156,"BSTAR":0.00043973431,"MEAN_MOTION_DOT":5.16e-5,"MEAN_MOTION_DDOT":0},{"OBJECT_NAME":"STARLINK-33956","OBJECT_ID":"2025-098B","EPOCH":"2025-09-24T05:44:42.580608","MEAN_MOTION":14.98335141,"ECCENTRICITY":0.00026486,"INCLINATION":70.0043,"RA_OF_ASC_NODE":333.9822,"ARG_OF_PERICENTER":262.8609,"MEAN_ANOMALY":97.2249,"EPHEMERIS_TYPE":0,"CLASSIFICATION_TYPE":"U","NORAD_CAT_ID":63927,"ELEMENT_SET_NO":999,"REV_AT_EPOCH":2164,"BSTAR":0.00033577089,"MEAN_MOTION_DOT":3.916e-5,"MEAN_MOTION_DDOT":0},{"OBJECT_NAME":"STARLINK-33997","OBJECT_ID":"2025-098C","EPOCH":"2025-09-24T05:32:43.590912","MEAN_MOTION":14.98334271,"ECCENTRICITY":0.00024972,"INCLINATION":70.0054,"RA_OF_ASC_NODE":334.3503,"ARG_OF_PERICENTER":263.0461,"MEAN_ANOMALY":97.0414,"EPHEMERIS_TYPE":0,"CLASSIFICATION_TYPE":"U","NORAD_CAT_ID":63928,"ELEMENT_SET_NO":999,"REV_AT_EPOCH":2163,"BSTAR":0.00027965304,"MEAN_MOTION_DOT":3.246e-5,"MEAN_MOTION_DDOT":0},{"OBJECT_NAME":"STARLINK-33989","OBJECT_ID":"2025-098D","EPOCH":"2025-09-24T06:33:02.047968","MEAN_MOTION":14.98334665,"ECCENTRICITY":0.00035855,"INCLINATION":70.0024,"RA_OF_ASC_NODE":334.0987,"ARG_OF_PERICENTER":270.8174,"MEAN_ANOMALY":89.2574,"EPHEMERIS_TYPE":0,"CLASSIFICATION_TYPE":"U","NORAD_CAT_ID":63929,"ELEMENT_SET_NO":999,"REV_AT_EPOCH":2164,"BSTAR":0.00038600185,"MEAN_MOTION_DOT":4.516e-5,"MEAN_MOTION_DDOT":0},{"OBJECT_NAME":"STARLINK-33980","OBJECT_ID":"2025-098E","EPOCH":"2025-09-24T03:50:32.329824","MEAN_MOTION":14.98432849,"ECCENTRICITY":0.00041739,"INCLINATION":70.0027,"RA_OF_ASC_NODE":334.5106,"ARG_OF_PERICENTER":260.3706,"MEAN_ANOMALY":99.6981,"EPHEMERIS_TYPE":0,"CLASSIFICATION_TYPE":"U","NORAD_CAT_ID":63930,"ELEMENT_SET_NO":999,"REV_AT_EPOCH":2162,"BSTAR":-0.0099012984,"MEAN_MOTION_DOT":-0.00116614,"MEAN_MOTION_DDOT":0},{"OBJECT_NAME":"STARLINK-33994","OBJECT_ID":"2025-098F","EPOCH":"2025-09-24T06:27:01.662336","MEAN_MOTION":14.98329386,"ECCENTRICITY":0.00029097,"INCLINATION":70.0023,"RA_OF_ASC_NODE":334.0831,"ARG_OF_PERICENTER":267.94,"MEAN_ANOMALY":92.1426,"EPHEMERIS_TYPE":0,"CLASSIFICATION_TYPE":"U","NORAD_CAT_ID":63931,"ELEMENT_SET_NO":999,"REV_AT_EPOCH":2164,"BSTAR":0.00031395158,"MEAN_MOTION_DOT":3.655e-5,"MEAN_MOTION_DDOT":0},{"OBJECT_NAME":"STARLINK-33971","OBJECT_ID":"2025-098G","EPOCH":"2025-09-24T03:44:48.219360","MEAN_MOTION":14.98343268,"ECCENTRICITY":0.00035294,"INCLINATION":70.0039,"RA_OF_ASC_NODE":334.4986,"ARG_OF_PERICENTER":260.8562,"MEAN_ANOMALY":99.2198,"EPHEMERIS_TYPE":0,"CLASSIFICATION_TYPE":"U","NORAD_CAT_ID":63932,"ELEMENT_SET_NO":999,"REV_AT_EPOCH":2162,"BSTAR":0.00060014724,"MEAN_MOTION_DOT":7.078e-5,"MEAN_MOTION_DDOT":0},{"OBJECT_NAME":"STARLINK-33877","OBJECT_ID":"2025-098H","EPOCH":"2025-09-24T02:38:41.189280","MEAN_MOTION":14.98335626,"ECCENTRICITY":0.00036074,"INCLINATION":70.001,"RA_OF_ASC_NODE":334.326,"ARG_OF_PERICENTER":272.7623,"MEAN_ANOMALY":87.3123,"EPHEMERIS_TYPE":0,"CLASSIFICATION_TYPE":"U","NORAD_CAT_ID":63933,"ELEMENT_SET_NO":999,"REV_AT_EPOCH":2162,"BSTAR":0.00023200207,"MEAN_MOTION_DOT":2.677e-5,"MEAN_MOTION_DDOT":0},{"OBJECT_NAME":"STARLINK-33895","OBJECT_ID":"2025-098J","EPOCH":"2025-09-24T07:39:07.091712","MEAN_MOTION":14.98326393,"ECCENTRICITY":0.00035299,"INCLINATION":70.0022,"RA_OF_ASC_NODE":333.8554,"ARG_OF_PERICENTER":264.9175,"MEAN_ANOMALY":95.1581,"EPHEMERIS_TYPE":0,"CLASSIFICATION_TYPE":"U","NORAD_CAT_ID":63934,"ELEMENT_SET_NO":999,"REV_AT_EPOCH":2165,"BSTAR":0.00089653155,"MEAN_MOTION_DOT":0.0001062,"MEAN_MOTION_DDOT":0},{"OBJECT_NAME":"STARLINK-34005","OBJECT_ID":"2025-098K","EPOCH":"2025-09-23T15:01:44.142240","MEAN_MOTION":14.9834756,"ECCENTRICITY":0.00042089,"INCLINATION":70.0021,"RA_OF_ASC_NODE":335.8477,"ARG_OF_PERICENTER":270.51,"MEAN_ANOMALY":89.5577,"EPHEMERIS_TYPE":0,"CLASSIFICATION_TYPE":"U","NORAD_CAT_ID":63935,"ELEMENT_SET_NO":999,"REV_AT_EPOCH":2154,"BSTAR":0.0004987854,"MEAN_MOTION_DOT":5.866e-5,"MEAN_MOTION_DDOT":0},{"OBJECT_NAME":"STARLINK-34027","OBJECT_ID":"2025-098L","EPOCH":"2025-09-24T05:38:57.097248","MEAN_MOTION":14.98319852,"ECCENTRICITY":0.00021468,"INCLINATION":70.0025,"RA_OF_ASC_NODE":333.9632,"ARG_OF_PERICENTER":271.5778,"MEAN_ANOMALY":88.5135,"EPHEMERIS_TYPE":0,"CLASSIFICATION_TYPE":"U","NORAD_CAT_ID":63936,"ELEMENT_SET_NO":999,"REV_AT_EPOCH":2162,"BSTAR":0.00026948691,"MEAN_MOTION_DOT":3.123e-5,"MEAN_MOTION_DDOT":0},{"OBJECT_NAME":"STARLINK-34035","OBJECT_ID":"2025-098M","EPOCH":"2025-09-23T14:19:39.833184","MEAN_MOTION":14.98345357,"ECCENTRICITY":0.0003869,"INCLINATION":70.0021,"RA_OF_ASC_NODE":335.7509,"ARG_OF_PERICENTER":272.7873,"MEAN_ANOMALY":87.2844,"EPHEMERIS_TYPE":0,"CLASSIFICATION_TYPE":"U","NORAD_CAT_ID":63937,"ELEMENT_SET_NO":999,"REV_AT_EPOCH":2152,"BSTAR":0.00063215238,"MEAN_MOTION_DOT":7.461e-5,"MEAN_MOTION_DDOT":0},{"OBJECT_NAME":"STARLINK-33988","OBJECT_ID":"2025-098N","EPOCH":"2025-09-24T06:38:48.651936","MEAN_MOTION":14.98336951,"ECCENTRICITY":0.0002562,"INCLINATION":70.0046,"RA_OF_ASC_NODE":334.1138,"ARG_OF_PERICENTER":278.894,"MEAN_ANOMALY":81.1929,"EPHEMERIS_TYPE":0,"CLASSIFICATION_TYPE":"U","NORAD_CAT_ID":63938,"ELEMENT_SET_NO":999,"REV_AT_EPOCH":2162,"BSTAR":0.0003657367,"MEAN_MOTION_DOT":4.274e-5,"MEAN_MOTION_DDOT":0},{"OBJECT_NAME":"STARLINK-34020","OBJECT_ID":"2025-098P","EPOCH":"2025-09-24T07:33:04.672224","MEAN_MOTION":14.98321961,"ECCENTRICITY":0.00037299,"INCLINATION":70.002,"RA_OF_ASC_NODE":333.8391,"ARG_OF_PERICENTER":268.894,"MEAN_ANOMALY":91.1791,"EPHEMERIS_TYPE":0,"CLASSIFICATION_TYPE":"U","NORAD_CAT_ID":63939,"ELEMENT_SET_NO":999,"REV_AT_EPOCH":2163,"BSTAR":-0.0017345598,"MEAN_MOTION_DOT":-0.00020725,"MEAN_MOTION_DDOT":0},{"OBJECT_NAME":"STARLINK-34021","OBJECT_ID":"2025-098Q","EPOCH":"2025-09-24T05:32:57.792480","MEAN_MOTION":14.98336358,"ECCENTRICITY":0.00022195,"INCLINATION":70.0049,"RA_OF_ASC_NODE":334.3491,"ARG_OF_PERICENTER":263.7209,"MEAN_ANOMALY":96.3698,"EPHEMERIS_TYPE":0,"CLASSIFICATION_TYPE":"U","NORAD_CAT_ID":63940,"ELEMENT_SET_NO":999,"REV_AT_EPOCH":2161,"BSTAR":0.00022947838,"MEAN_MOTION_DOT":2.647e-5,"MEAN_MOTION_DDOT":0},{"OBJECT_NAME":"STARLINK-34004","OBJECT_ID":"2025-098R","EPOCH":"2025-09-24T07:45:07.698528","MEAN_MOTION":14.98323707,"ECCENTRICITY":0.00035103,"INCLINATION":70.0017,"RA_OF_ASC_NODE":333.8642,"ARG_OF_PERICENTER":270.3041,"MEAN_ANOMALY":89.7716,"EPHEMERIS_TYPE":0,"CLASSIFICATION_TYPE":"U","NORAD_CAT_ID":63941,"ELEMENT_SET_NO":999,"REV_AT_EPOCH":2163,"BSTAR":0.00031199476,"MEAN_MOTION_DOT":3.631e-5,"MEAN_MOTION_DDOT":0},{"OBJECT_NAME":"STARLINK-34014","OBJECT_ID":"2025-098S","EPOCH":"2025-09-24T07:50:54.047616","MEAN_MOTION":14.98336173,"ECCENTRICITY":0.00031441,"INCLINATION":70.0019,"RA_OF_ASC_NODE":333.8827,"ARG_OF_PERICENTER":267.8421,"MEAN_ANOMALY":92.2378,"EPHEMERIS_TYPE":0,"CLASSIFICATION_TYPE":"U","NORAD_CAT_ID":63942,"ELEMENT_SET_NO":999,"REV_AT_EPOCH":2163,"BSTAR":0.00078376303,"MEAN_MOTION_DOT":9.273e-5,"MEAN_MOTION_DDOT":0}]
